NORAD_CAT_ID,OBJECT_NAME,OBJECT_TYPE,EPOCH,MEAN_MOTION,ECCENTRICITY,INCLINATION,RA_OF_ASC_NODE,ARG_OF_PERICENTER,MEAN_ANOMALY,BSTAR,MEAN_MOTION_DOT,MEAN_MOTION_DDOT,TLE_LINE0,TLE_LINE1,TLE_LINE2,SEMIMAJOR_AXIS,PERIOD,APOGEE,PERIGEE,DECAYED
55292.0,STARLINK-5325,PAYLOAD,2023-08-22 08:12:25,14.98326499,0.0003056,69.9986,210.131,269.2105,90.8704,6.7826e-05,7.16e-06,0.0,0 STARLINK-5325,1 55292U 23010Z   23234.34195825  .00000716  00000-0  67826-4 0  9997,2 55292  69.9986 210.1310 0003056 269.2105  90.8704 14.98326499 33604,6950.204,96.107,574.193,569.945,0.0
55292.0,STARLINK-5325,PAYLOAD,2023-08-23 08:14:26,14.98330626,0.0003027,69.9988,207.6061,269.0416,91.0396,3.5843e-05,3.35e-06,0.0,0 STARLINK-5325,1 55292U 23010Z   23235.34335772  .00000335  00000-0  35843-4 0  9996,2 55292  69.9988 207.6061 0003027 269.0416  91.0396 14.98330626 33754,6950.191,96.107,574.16,569.952,0.0
55292.0,STARLINK-5325,PAYLOAD,2023-08-24 08:16:27,14.98329776,0.0002918,69.9993,205.0818,267.7486,92.3339,1.5524e-05,9.2e-07,0.0,0 STARLINK-5325,1 55292U 23010Z   23236.34475896  .00000092  00000-0  15524-4 0  9993,2 55292  69.9993 205.0818 0002918 267.7486  92.3339 14.98329776 34219,6950.194,96.107,574.087,570.031,0.0
55292.0,STARLINK-5325,PAYLOAD,2023-08-25 08:18:27,14.98334412,0.0002862,69.9994,202.5571,266.3128,93.7704,3.1821e-05,2.87e-06,0.0,0 STARLINK-5325,1 55292U 23010Z   23237.34615423  .00000287  00000-0  31821-4 0  9990,2 55292  69.9994 202.5571 0002862 266.3128  93.7704 14.98334412 34050,6950.179,96.107,574.033,570.055,0.0
55292.0,STARLINK-5325,PAYLOAD,2023-08-25 21:07:34,14.9831854,0.0002027,70.0021,201.2189,252.0129,108.0809,-0.00023484,-2.893e-05,0.0,0 STARLINK-5325,1 55292U 23010Z   23237.88025761 -.00002893  00000-0 -23484-3 0  9991,2 55292  70.0021 201.2189 0002027 252.0129 108.0809 14.98318540 34444,6950.228,96.108,573.502,570.685,0.0
55292.0,STARLINK-5325,PAYLOAD,2023-08-26 00:20:01,14.98176282,0.0003505,69.9998,200.8758,271.0146,89.0611,-0.001641,-0.00019542,0.0,0 STARLINK-5325,1 55292U 23010Z   23238.01390400 -.00019542  00000-0 -16410-2 0  9991,2 55292  69.9998 200.8758 0003505 271.0146  89.0611 14.98176282 34155,6950.668,96.117,574.97,570.097,0.0
55292.0,STARLINK-5325,PAYLOAD,2023-08-26 08:21:00,14.97982698,0.0002884,69.9998,200.0341,268.5313,91.5516,-0.0036236,-0.00042682,0.0,0 STARLINK-5325,1 55292U 23010Z   23238.34791717 -.00042682  00000-0 -36236-2 0  9992,2 55292  69.9998 200.0341 0002884 268.5313  91.5516 14.97982698 34204,6951.267,96.129,575.137,571.127,0.0
55292.0,STARLINK-5325,PAYLOAD,2023-08-27 01:59:16,14.97593209,0.0003362,69.9995,198.1847,266.7195,93.3579,-0.0070692,-0.00081894,0.0,0 STARLINK-5325,1 55292U 23010Z   23239.08283258 -.00081894  00000-0 -70692-2 0  9992,2 55292  69.9995 198.1847 0003362 266.7195  93.3579 14.97593209 34316,6952.472,96.154,576.675,572.0,0.0
55292.0,STARLINK-5325,PAYLOAD,2023-08-27 14:00:01,14.96722218,0.0003236,69.9998,196.9219,269.3758,268.4162,-0.0036381,-0.00041494,0.0,0 STARLINK-5325,1 55292U 23010Z   23239.58334491 -.00041494  00000-0 -36381-2 0  9992,2 55292  69.9998 196.9219 0003236 269.3758 268.4162 14.96722218 34396,6955.169,96.21,579.285,574.784,0.0
55292.0,STARLINK-5325,PAYLOAD,2023-08-27 22:00:00,14.96720633,0.0003233,70.0002,196.0839,265.5926,267.7294,-3.8879e-05,-5.37e-06,0.0,0 STARLINK-5325,1 55292U 23010Z   23239.91667824 -.00000537  00000-0 -38879-4 0  9997,2 55292  70.0002 196.0839 0003233 265.5926 267.7294 14.96720633  5829,6955.174,96.21,579.288,574.791,0.0
55292.0,STARLINK-5325,PAYLOAD,2023-08-28 06:00:02,14.96706661,0.0003224,70.0002,195.2455,271.9399,257.0065,0.0013254,0.00015108,0.0,0 STARLINK-5325,1 55292U 23010Z   23240.25002315  .00015108  00000-0  13254-2 0  9990,2 55292  70.0002 195.2455 0003224 271.9399 257.0065 14.96706661 34497,6955.217,96.211,579.325,574.84,0.0
55292.0,STARLINK-5325,PAYLOAD,2023-08-28 22:00:00,14.96724871,0.0003224,70.0007,193.5689,265.5424,254.4255,0.0021554,0.00024672,0.0,0 STARLINK-5325,1 55292U 23010Z   23240.91667824  .00024672  00000-0  21554-2 0  9993,2 55292  70.0007 193.5689 0003224 265.5424 254.4255 14.96724871  5774,6955.161,96.21,579.268,574.784,0.0
55292.0,STARLINK-5325,PAYLOAD,2023-08-29 14:00:01,14.96898012,0.0003231,70.0007,191.8922,268.3245,242.7997,0.039639,0.00483595,0.0,0 STARLINK-5325,1 55292U 23010Z   23241.58334491  .00483595  00000-0  39639-1 0  9993,2 55292  70.0007 191.8922 0003231 268.3245 242.7997 14.96898012 34690,6954.625,96.199,578.737,574.243,0.0
55292.0,STARLINK-5325,PAYLOAD,2023-08-29 22:00:00,14.97234788,0.000321,70.0011,191.0536,265.9235,241.1415,0.039464,0.00485757,0.0,0 STARLINK-5325,1 55292U 23010Z   23241.91667824  .00485757  00000-0  39464-1 0  9997,2 55292  70.0011 191.0536 0003210 265.9235 241.1415 14.97234788  5722,6953.582,96.177,577.679,573.215,0.0
55292.0,STARLINK-5325,PAYLOAD,2023-08-30 00:32:52,14.97009463,0.0003016,69.9994,190.7858,271.1827,88.8986,0.0032214,0.00037257,0.0,0 STARLINK-5325,1 55292U 23010Z   23242.02283385  .00037257  00000-0  32214-2 0  9991,2 55292  69.9994 190.7858 0003016 271.1827  88.8986 14.97009463 34756,6954.28,96.192,578.242,574.047,0.0
55292.0,STARLINK-5325,PAYLOAD,2023-08-30 13:22:13,14.97294798,0.0003199,69.9994,189.4399,262.7962,97.2833,0.0058007,0.00067956,0.0,0 STARLINK-5325,1 55292U 23010Z   23242.55710019  .00067956  00000-0  58007-2 0  9995,2 55292  69.9994 189.4399 0003199 262.7962  97.2833 14.97294798 34830,6953.396,96.173,577.485,573.037,0.0
55292.0,STARLINK-5325,PAYLOAD,2023-08-30 14:00:01,14.97866522,0.0003158,70.0011,189.3749,268.469,231.6829,0.039808,0.00498801,0.0,0 STARLINK-5325,1 55292U 23010Z   23242.58334491  .00498801  00000-0  39808-1 0  9998,2 55292  70.0011 189.3749 0003158 268.4690 231.6829 14.97866522 34847,6951.627,96.137,575.687,571.296,0.0
55292.0,STARLINK-5325,PAYLOAD,2023-08-31 22:00:01,14.98348303,0.0003133,70.0019,186.0137,267.5534,222.1673,-0.0015803,-0.00018907,0.0,0 STARLINK-5325,1 55292U 23010Z   23243.91668981 -.00018907  00000-0 -15803-2 0  9997,2 55292  70.0019 186.0137 0003133 267.5534 222.1673 14.98348303 35048,6950.136,96.106,574.179,569.824,0.0
55292.0,STARLINK-5325,PAYLOAD,2023-09-01 14:00:01,14.98318287,0.0003109,70.0017,184.3329,269.5074,215.1357,0.0010605,0.0001258,0.0,0 STARLINK-5325,1 55292U 23010Z   23244.58334491  .00012580  00000-0  10605-2 0  9991,2 55292  70.0017 184.3329 0003109 269.5074 215.1357 14.98318287  5725,6950.229,96.108,574.255,569.933,0.0
55292.0,STARLINK-5325,PAYLOAD,2023-09-01 22:00:00,14.98364404,0.0003138,70.002,183.4925,267.9245,214.1945,-0.0018891,-0.00022581,0.0,0 STARLINK-5325,1 55292U 23010Z   23244.91667824 -.00022581  00000-0 -18891-2 0  9996,2 55292  70.0020 183.4925 0003138 267.9245 214.1945 14.98364404 35193,6950.087,96.105,574.132,569.771,0.0
55292.0,STARLINK-5325,PAYLOAD,2023-09-02 14:00:01,14.98315813,0.0003162,70.0017,181.8115,270.3972,206.7484,0.0018909,0.00022533,0.0,0 STARLINK-5325,1 55292U 23010Z   23245.58334491  .00022533  00000-0  18909-2 0  9996,2 55292  70.0017 181.8115 0003162 270.3972 206.7484 14.98315813  5770,6950.237,96.108,574.299,569.904,0.0
55292.0,STARLINK-5325,PAYLOAD,2023-09-02 22:00:00,14.98376967,0.0003137,70.0019,180.9713,268.5093,206.1102,-0.0033857,-0.00040309,0.0,0 STARLINK-5325,1 55292U 23010Z   23245.91667824 -.00040309  00000-0 -33857-2 0  9994,2 55292  70.0019 180.9713 0003137 268.5093 206.1102 14.98376967 35345,6950.048,96.104,574.093,569.732,0.0
55292.0,STARLINK-5325,PAYLOAD,2023-09-03 14:00:01,14.98277546,0.0002908,70.0016,179.2903,267.1958,202.4231,0.002904,0.00034682,0.0,0 STARLINK-5325,1 55292U 23010Z   23246.58334491  .00034682  00000-0  29040-2 0  9993,2 55292  70.0016 179.2903 0002908 267.1958 202.4231 14.98277546  5773,6950.355,96.11,574.241,570.199,0.0
55292.0,STARLINK-5325,PAYLOAD,2023-09-04 02:19:54,14.98293735,0.0002727,69.9999,177.9949,265.638,94.4467,-0.00050966,-6.163e-05,0.0,0 STARLINK-5325,1 55292U 23010Z   23247.09715745 -.00006163  00000-0 -50966-3 0  9992,2 55292  69.9999 177.9949 0002727 265.6380  94.4467 14.98293735 35519,6950.305,96.109,574.065,570.275,0.0
55292.0,STARLINK-5325,PAYLOAD,2023-09-04 05:32:11,14.98280085,0.0002954,70.0002,177.6593,267.5618,92.5203,-0.000643,-7.747e-05,0.0,0 STARLINK-5325,1 55292U 23010Z   23247.23069269 -.00007747  00000-0 -64300-3 0  9997,2 55292  70.0002 177.6593 0002954 267.5618  92.5203 14.98280085 35539,6950.347,96.11,574.265,570.159,0.0
55292.0,STARLINK-5325,PAYLOAD,2023-09-05 02:21:54,14.98318754,0.0003218,69.9993,175.4699,266.2706,93.8086,-0.00014763,-1.854e-05,0.0,0 STARLINK-5325,1 55292U 23010Z   23248.09854320 -.00001854  00000-0 -14763-3 0  9993,2 55292  69.9993 175.4699 0003218 266.2706  93.8086 14.98318754 35668,6950.228,96.108,574.329,569.856,0.0
55292.0,STARLINK-5325,PAYLOAD,2023-09-05 05:34:09,14.98347047,0.0002378,69.9992,175.1316,263.382,96.7068,-0.00052298,-6.33e-05,0.0,0 STARLINK-5325,1 55292U 23010Z   23248.23205539 -.00006330  00000-0 -52298-3 0  9990,2 55292  69.9992 175.1316 0002378 263.3820  96.7068 14.98347047 35682,6950.14,96.106,573.658,570.352,0.0
55292.0,STARLINK-5325,PAYLOAD,2023-09-06 05:36:08,14.98342051,0.0002922,70.0,172.6093,261.5558,98.527,0.00039737,4.653e-05,0.0,0 STARLINK-5325,1 55292U 23010Z   23249.23343411  .00004653  00000-0  39737-3 0  9990,2 55292  70.0000 172.6093 0002922 261.5558  98.5270 14.98342051 35834,6950.156,96.106,574.051,569.99,0.0
55292.0,STARLINK-5325,PAYLOAD,2023-09-06 18:25:14,14.98349132,0.0002124,69.9975,171.2597,272.0274,88.0642,6.6301e-05,6.99e-06,0.0,0 STARLINK-5325,1 55292U 23010Z   23249.76752447  .00000699  00000-0  66301-4 0  9995,2 55292  69.9975 171.2597 0002124 272.0274  88.0642 14.98349132 35915,6950.134,96.106,573.475,570.523,0.0
55292.0,STARLINK-5325,PAYLOAD,2023-09-07 00:49:46,14.98337029,0.0003082,70.0005,170.5895,258.5912,101.4901,-3.4285e-06,-1.34e-06,0.0,0 STARLINK-5325,1 55292U 23010Z   23250.03456871 -.00000134  00000-0 -34285-5 0  9992,2 55292  70.0005 170.5895 0003082 258.5912 101.4901 14.98337029 35951,6950.171,96.107,574.178,569.894,0.0
